{"type":"FeatureCollection", "features": [
{"type":"Feature","geometry":{"type":"Polygon","coordinates":[[[-80.262,37.3405],[-80.4335,37.315],[-80.607,37.245],[-80.5295,37.134],[-80.58,37.0895],[-80.544,36.9845],[-80.3475,37.022],[-80.178,37.1135],[-80.262,37.3405]]]},"properties":{"name":"Montgomery"}},
{"type":"Feature","geometry":{"type":"Polygon","coordinates":[[[-79.172,37.803],[-79.0715,37.7785],[-78.869,37.542],[-78.825,37.5525],[-78.644,37.733],[-78.839,38.0475],[-79.005,37.8815],[-79.1575,37.891],[-79.172,37.803]]]},"properties":{"name":"Nelson"}},
{"type":"Feature","geometry":{"type":"Polygon","coordinates":[[[-80.2355,36.872],[-80.464,36.7085],[-80.612,36.558],[-80.44,36.5505],[-80.0535,36.5425],[-80.0415,36.7945],[-80.2355,36.872]]]},"properties":{"name":"Patrick"}},
{"type":"Feature","geometry":{"type":"Polygon","coordinates":[[[-78.0725,37.6575],[-78.132,37.4545],[-78.0145,37.492],[-77.855,37.4185],[-77.654,37.5625],[-78.0725,37.6575]]]},"properties":{"name":"Powhatan"}},
{"type":"Feature","geometry":{"type":"Polygon","coordinates":[[[-80.5295,37.134],[-80.607,37.245],[-80.8545,37.1475],[-80.9125,37.0735],[-80.7405,36.879],[-80.634,36.932],[-80.544,36.9845],[-80.58,37.0895],[-80.5965,37.119],[-80.5295,37.134]]]},"properties":{"name":"Pulaski"}},
{"type":"Feature","geometry":{"type":"Polygon","coordinates":[[[-77.9355,38.696],[-78.1305,38.865],[-78.285,38.759],[-78.3385,38.6275],[-78.232,38.5325],[-78.169,38.524],[-77.9355,38.696]]]},"properties":{"name":"Rappahannock"}},
{"type":"Feature","geometry":{"type":"Polygon","coordinates":[[[-81.7805,36.9585],[-81.837,36.929],[-81.606,36.6385],[-81.5445,36.7015],[-81.2615,36.763],[-81.3795,36.9525],[-81.437,37.01],[-81.683,36.933],[-81.7805,36.9585]]]},"properties":{"name":"Smyth"}},
{"type":"Feature","geometry":{"type":"Polygon","coordinates":[[[-78.285,38.759],[-78.1305,38.865],[-78.004,38.9795],[-78.152,39.0365],[-78.314,39.008],[-78.3865,38.83],[-78.285,38.759]]]},"properties":{"name":"Warren"}},
{"type":"Feature","geometry":{"type":"Polygon","coordinates":[[[-81.3795,36.9525],[-81.2615,36.763],[-81.0425,36.8065],[-80.7405,36.879],[-80.9125,37.0735],[-81.2245,37.048],[-81.3795,36.9525]]]},"properties":{"name":"Wythe"}},
{"type":"Feature","geometry":{"type":"Polygon","coordinates":[[[-77.039,38.785],[-77.0385,38.7915],[-77.033,38.8395],[-77.088,38.825],[-77.039,38.785]]]},"properties":{"name":"Alexandria"}},
{"type":"Feature","geometry":{"type":"Polygon","coordinates":[[[-79.367,37.727],[-79.36,37.7025],[-79.329,37.7605],[-79.3805,37.744],[-79.367,37.727]]]},"properties":{"name":"Buena Vista"}},
{"type":"Feature","geometry":{"type":"Polygon","coordinates":[[[-78.5205,38.0185],[-78.4695,38.0115],[-78.449,38.0585],[-78.495,38.0655],[-78.5205,38.0185]]]},"properties":{"name":"Charlottesville"}},
{"type":"Feature","geometry":{"type":"Polygon","coordinates":[[[-77.5565,36.675],[-77.509,36.683],[-77.512,36.719],[-77.5575,36.713],[-77.5565,36.675]]]},"properties":{"name":"Emporia"}},
{"type":"Feature","geometry":{"type":"Polygon","coordinates":[[[-78.8705,38.4825],[-78.9145,38.39],[-78.8245,38.4355],[-78.8705,38.4825]]]},"properties":{"name":"Harrisonburg"}},
{"type":"Feature","geometry":{"type":"Polygon","coordinates":[[[-77.284,37.313],[-77.3345,37.3125],[-77.3105,37.2615],[-77.284,37.313]]]},"properties":{"name":"Hopewell"}},
{"type":"Feature","geometry":{"type":"Polygon","coordinates":[[[-77.421,37.447],[-77.413,37.58],[-77.596,37.5555],[-77.421,37.447]]]},"properties":{"name":"Richmond"}},
{"type":"Feature","geometry":{"type":"Polygon","coordinates":[[[-80.0225,37.308],[-80.1205,37.287],[-80.0335,37.263],[-80.0225,37.308]]]},"properties":{"name":"Salem"}},
{"type":"Feature","geometry":{"type":"Polygon","coordinates":[[[-78.9495,38.057],[-78.872,38.0395],[-78.856,38.0745],[-78.9035,38.1],[-78.9495,38.057]]]},"properties":{"name":"Waynesboro"}},
{"type":"Feature","geometry":{"type":"Polygon","coordinates":[[[-77.855,37.4185],[-78.0145,37.492],[-78.132,37.4545],[-78.235,37.368],[-78.231,37.296],[-77.796,37.1925],[-77.6505,37.265],[-77.7585,37.2685],[-77.855,37.4185]]]},"properties":{"name":"Amelia"}},
{"type":"Feature","geometry":{"type":"Polygon","coordinates":[[[-80.0555,37.9515],[-79.651,37.8715],[-79.4825,38.086],[-79.512,38.1805],[-79.7945,38.265],[-79.921,38.18],[-79.96,38.0635],[-80.0555,37.9515]]]},"properties":{"name":"Bath"}},
{"type":"Feature","geometry":{"type":"Polygon","coordinates":[[[-78.4915,37.7965],[-78.644,37.733],[-78.825,37.5525],[-78.5945,37.398],[-78.465,37.3395],[-78.2395,37.6905],[-78.4915,37.7965]]]},"properties":{"name":"Buckingham"}},
{"type":"Feature","geometry":{"type":"Polygon","coordinates":[[[-78.033,39.2645],[-78.152,39.0365],[-78.004,38.9795],[-77.962,39.014],[-77.828,39.1325],[-78.033,39.2645]]]},"properties":{"name":"Clarke"}},
{"type":"Feature","geometry":{"type":"Polygon","coordinates":[[[-77.9355,38.696],[-78.169,38.524],[-78.232,38.5325],[-78.0965,38.4045],[-78.0945,38.3115],[-77.892,38.389],[-77.703,38.3605],[-77.6185,38.368],[-77.635,38.4095],[-77.7355,38.413],[-77.9355,38.696]]]},"properties":{"name":"Culpeper"}},
{"type":"Feature","geometry":{"type":"Polygon","coordinates":[[[-80.2355,36.872],[-80.1215,36.9915],[-80.128,37.123],[-80.178,37.1135],[-80.3475,37.022],[-80.544,36.9845],[-80.634,36.932],[-80.464,36.7085],[-80.2355,36.872]]]},"properties":{"name":"Floyd"}},
{"type":"Feature","geometry":{"type":"Polygon","coordinates":[[[-78.1595,37.7485],[-78.0725,37.6575],[-77.654,37.5625],[-77.63,37.707],[-77.797,37.729],[-78.0635,37.905],[-78.1595,37.7485]]]},"properties":{"name":"Goochland"}},
{"type":"Feature","geometry":{"type":"Polygon","coordinates":[[[-77.345,37.7895],[-77.1235,37.627],[-76.792,37.5175],[-76.9155,37.6935],[-77.0335,37.721],[-77.1815,37.8915],[-77.345,37.7895]]]},"properties":{"name":"King William"}},
{"type":"Feature","geometry":{"type":"Polygon","coordinates":[[[-78.4435,37.0795],[-78.493,36.891],[-78.2415,36.808],[-78.0275,36.778],[-78.0035,37.023],[-78.2395,37.12],[-78.4435,37.0795]]]},"properties":{"name":"Lunenburg"}},
{"type":"Feature","geometry":{"type":"Polygon","coordinates":[[[-78.453,38.4755],[-78.43,38.367],[-78.287,38.2715],[-78.0945,38.3115],[-78.0965,38.4045],[-78.232,38.5325],[-78.3385,38.6275],[-78.453,38.4755]]]},"properties":{"name":"Madison"}},
{"type":"Feature","geometry":{"type":"Polygon","coordinates":[[[-76.8975,36.644],[-76.9155,36.544],[-76.5415,36.5505],[-76.4915,36.5505],[-76.4205,36.8665],[-76.407,36.8975],[-76.484,36.929],[-76.8975,36.644]]]},"properties":{"name":"Suffolk"}},
{"type":"Feature","geometry":{"type":"Polygon","coordinates":[[[-76.226,36.84],[-76.122,36.666],[-76.1225,36.5505],[-75.867,36.551],[-75.9965,36.922],[-76.177,36.9295],[-76.226,36.84]]]},"properties":{"name":"Virginia Beach"}},
{"type":"Feature","geometry":{"type":"Polygon","coordinates":[[[-78.197,39.191],[-78.183,39.131],[-78.137,39.1845],[-78.197,39.191]]]},"properties":{"name":"Winchester"}},
{"type":"Feature","geometry":{"type":"Polygon","coordinates":[[[-77.335,38.8515],[-77.2705,38.841],[-77.2705,38.866],[-77.335,38.8515]]]},"properties":{"name":"Fairfax"}},
{"type":"Feature","geometry":{"type":"Polygon","coordinates":[[[-80.221,37.628],[-80.0205,37.6475],[-79.8165,37.801],[-79.674,37.763],[-79.651,37.8715],[-80.0555,37.9515],[-80.296,37.692],[-80.221,37.628]],[[-79.9835,37.8025],[-79.9665,37.757],[-80.009,37.763],[-79.9835,37.8025]]]},"properties":{"name":"Alleghany"}},
{"type":"Feature","geometry":{"type":"Polygon","coordinates":[[[-78.869,37.542],[-79.0185,37.43],[-78.9175,37.2425],[-78.824,37.2055],[-78.6815,37.249],[-78.5945,37.398],[-78.825,37.5525],[-78.869,37.542]]]},"properties":{"name":"Appomattox"}},
{"type":"Feature","geometry":{"type":"Polygon","coordinates":[[[-77.033,38.8395],[-77.12,38.9345],[-77.172,38.8935],[-77.1505,38.876],[-77.088,38.825],[-77.033,38.8395]]]},"properties":{"name":"Arlington"}},
{"type":"Feature","geometry":{"type":"Polygon","coordinates":[[[-79.512,38.1805],[-79.4825,38.086],[-79.1575,37.891],[-79.005,37.8815],[-78.839,38.0475],[-78.7495,38.2065],[-79.226,38.4795],[-79.3125,38.412],[-79.512,38.1805]],[[-78.9495,38.057],[-78.9035,38.1],[-78.856,38.0745],[-78.872,38.0395],[-78.9495,38.057]],[[-79.0915,38.132],[-79.097,38.185],[-79.023,38.196],[-79.05,38.121],[-79.0915,38.132]]]},"properties":{"name":"Augusta"}},
{"type":"Feature","geometry":{"type":"Polygon","coordinates":[[[-79.4985,37.533],[-79.7905,37.409],[-79.8475,37.309],[-79.847,37.2255],[-79.7185,37.19],[-79.594,37.042],[-79.443,37.056],[-79.257,37.3555],[-79.1835,37.466],[-79.437,37.617],[-79.4985,37.533]],[[-79.5435,37.324],[-79.5355,37.3555],[-79.487,37.346],[-79.5035,37.3165],[-79.5435,37.324]]]},"properties":{"name":"Bedford"}},
{"type":"Feature","geometry":{"type":"Polygon","coordinates":[[[-77.89,36.989],[-78.0035,37.023],[-78.0275,36.778],[-78.046,36.544],[-77.9,36.5445],[-77.767,36.545],[-77.656,36.7135],[-77.658,36.8945],[-77.89,36.989]]]},"properties":{"name":"Brunswick"}},
{"type":"Feature","geometry":{"type":"Polygon","coordinates":[[[-79.257,37.3555],[-79.443,37.056],[-79.332,37.1255],[-79.0925,37.0615],[-78.9045,37.0225],[-78.824,37.2055],[-78.9175,37.2425],[-79.0185,37.43],[-79.085,37.3945],[-79.257,37.3555]]]},"properties":{"name":"Campbell"}},
{"type":"Feature","geometry":{"type":"Polygon","coordinates":[[[-77.1815,37.8915],[-77.07,37.965],[-77.116,38.15],[-77.3265,38.245],[-77.3705,38.2465],[-77.642,37.991],[-77.345,37.7895],[-77.1815,37.8915]]]},"properties":{"name":"Caroline"}},
{"type":"Feature","geometry":{"type":"Polygon","coordinates":[[[-76.883,37.223],[-76.9045,37.3775],[-77.1775,37.4905],[-77.2495,37.382],[-77.2705,37.321],[-76.9725,37.2485],[-76.883,37.223]]]},"properties":{"name":"Charles City"}},
{"type":"Feature","geometry":{"type":"Polygon","coordinates":[[[-80.221,37.628],[-80.315,37.501],[-80.4755,37.423],[-80.4335,37.315],[-80.262,37.3405],[-80.074,37.4225],[-79.969,37.5445],[-80.0205,37.6475],[-80.221,37.628]]]},"properties":{"name":"Craig"}},
{"type":"Feature","geometry":{"type":"Polygon","coordinates":[[[-78.1595,37.7485],[-78.2395,37.6905],[-78.465,37.3395],[-78.235,37.368],[-78.132,37.4545],[-78.0725,37.6575],[-78.1595,37.7485]]]},"properties":{"name":"Cumberland"}},
{"type":"Feature","geometry":{"type":"Polygon","coordinates":[[[-82.1485,37.0415],[-82.306,37.301],[-82.5535,37.201],[-82.4675,37.022],[-82.328,36.971],[-82.1485,37.0415]]]},"properties":{"name":"Dickenson"}},
{"type":"Feature","geometry":{"type":"Polygon","coordinates":[[[-77.531,38.556],[-77.7155,38.832],[-77.655,38.9425],[-77.962,39.014],[-78.004,38.9795],[-78.1305,38.865],[-77.9355,38.696],[-77.7355,38.413],[-77.635,38.4095],[-77.531,38.556]]]},"properties":{"name":"Fauquier"}},
{"type":"Feature","geometry":{"type":"Polygon","coordinates":[[[-79.6405,36.856],[-79.594,37.042],[-79.7185,37.19],[-79.847,37.2255],[-79.9625,37.137],[-80.128,37.123],[-80.1215,36.9915],[-80.2355,36.872],[-80.0415,36.7945],[-79.762,36.7885],[-79.6405,36.856]]]},"properties":{"name":"Franklin"}},
{"type":"Feature","geometry":{"type":"Polygon","coordinates":[[[-78.544,39.0565],[-78.314,39.008],[-78.152,39.0365],[-78.033,39.2645],[-78.229,39.391],[-78.347,39.466],[-78.4105,39.172],[-78.508,39.0885],[-78.544,39.0565]],[[-78.197,39.191],[-78.137,39.1845],[-78.183,39.131],[-78.197,39.191]]]},"properties":{"name":"Frederick"}},
{"type":"Feature","geometry":{"type":"Polygon","coordinates":[[[-76.7125,37.4315],[-76.6585,37.38],[-76.499,37.241],[-76.381,37.2855],[-76.405,37.4],[-76.4375,37.5145],[-76.654,37.603],[-76.7125,37.4315]]]},"properties":{"name":"Gloucester"}},
{"type":"Feature","geometry":{"type":"Polygon","coordinates":[[[-77.658,36.8945],[-77.656,36.7135],[-77.767,36.545],[-77.297,36.5445],[-77.43,36.7075],[-77.4585,36.863],[-77.619,36.878],[-77.658,36.8945]],[[-77.5565,36.675],[-77.5575,36.713],[-77.512,36.719],[-77.509,36.683],[-77.5565,36.675]]]},"properties":{"name":"Greensville"}},
{"type":"Feature","geometry":{"type":"Polygon","coordinates":[[[-77.2285,37.5365],[-77.1235,37.627],[-77.345,37.7895],[-77.642,37.991],[-77.6875,38.008],[-77.797,37.729],[-77.63,37.707],[-77.446,37.684],[-77.2285,37.5365]]]},"properties":{"name":"Hanover"}},
{"type":"Feature","geometry":{"type":"Polygon","coordinates":[[[-79.7945,38.265],[-79.512,38.1805],[-79.3125,38.412],[-79.4765,38.457],[-79.649,38.5915],[-79.7945,38.265]]]},"properties":{"name":"Highland"}},
{"type":"Feature","geometry":{"type":"Polygon","coordinates":[[[-76.611,37.167],[-76.5915,37.2145],[-76.6795,37.2655],[-76.726,37.25],[-76.7275,37.305],[-76.6585,37.38],[-76.7125,37.4315],[-76.742,37.467],[-76.9045,37.3775],[-76.883,37.223],[-76.7915,37.2075],[-76.611,37.167]]]},"properties":{"name":"James City"}},
{"type":"Feature","geometry":{"type":"Polygon","coordinates":[[[-76.6425,37.7925],[-76.5365,37.6635],[-76.32,37.6805],[-76.508,37.839],[-76.6425,37.7925]]]},"properties":{"name":"Lancaster"}},
{"type":"Feature","geometry":{"type":"Polygon","coordinates":[[[-76.355,37.5275],[-76.527,37.6115],[-76.6835,37.7705],[-76.751,37.7285],[-76.654,37.603],[-76.4375,37.5145],[-76.355,37.5275]]]},"properties":{"name":"Middlesex"}},
{"type":"Feature","geometry":{"type":"Polygon","coordinates":[[[-76.751,37.7285],[-76.6835,37.7705],[-76.7755,37.8745],[-76.937,38.077],[-77.0615,38.1615],[-77.116,38.15],[-77.07,37.965],[-76.943,37.783],[-76.751,37.7285]]]},"properties":{"name":"Essex"}},
{"type":"Feature","geometry":{"type":"Polygon","coordinates":[[[-76.4375,37.5145],[-76.405,37.4],[-76.355,37.5275],[-76.4375,37.5145]]]},"properties":{"name":"Mathews"}},
{"type":"Feature","geometry":{"type":"Polygon","coordinates":[[[-78.208,38.133],[-78.37,38.185],[-78.663,38.278],[-78.7495,38.2065],[-78.839,38.0475],[-78.644,37.733],[-78.4915,37.7965],[-78.3065,38.0065],[-78.208,38.133]],[[-78.5205,38.0185],[-78.495,38.0655],[-78.449,38.0585],[-78.4695,38.0115],[-78.5205,38.0185]]]},"properties":{"name":"Albemarle"}},
{"type":"Feature","geometry":{"type":"Polygon","coordinates":[[[-79.1835,37.466],[-79.085,37.3945],[-79.0185,37.43],[-78.869,37.542],[-79.0715,37.7785],[-79.172,37.803],[-79.2645,37.7945],[-79.437,37.617],[-79.1835,37.466]]]},"properties":{"name":"Amherst"}},
{"type":"Feature","geometry":{"type":"Polygon","coordinates":[[[-79.8475,37.309],[-79.7905,37.409],[-79.4985,37.533],[-79.6835,37.6615],[-79.674,37.763],[-79.8165,37.801],[-80.0205,37.6475],[-79.969,37.5445],[-80.074,37.4225],[-79.8475,37.309]]]},"properties":{"name":"Botetourt"}},
{"type":"Feature","geometry":{"type":"Polygon","coordinates":[[[-81.0425,36.8065],[-80.9325,36.6715],[-80.9175,36.694],[-80.8775,36.692],[-80.914,36.65],[-80.838,36.559],[-80.612,36.558],[-80.464,36.7085],[-80.634,36.932],[-80.7405,36.879],[-81.0425,36.8065]]]},"properties":{"name":"Carroll"}},
{"type":"Feature","geometry":{"type":"Polygon","coordinates":[[[-77.89,36.989],[-77.658,36.8945],[-77.619,36.878],[-77.3985,36.993],[-77.399,37.171],[-77.4475,37.2225],[-77.6505,37.265],[-77.796,37.1925],[-77.9005,37.144],[-77.89,36.989]]]},"properties":{"name":"Dinwiddie"}},
{"type":"Feature","geometry":{"type":"Polygon","coordinates":[[[-78.3065,38.0065],[-78.4915,37.7965],[-78.2395,37.6905],[-78.1595,37.7485],[-78.0635,37.905],[-78.3065,38.0065]]]},"properties":{"name":"Fluvanna"}},
{"type":"Feature","geometry":{"type":"Polygon","coordinates":[[[-78.453,38.4755],[-78.486,38.4215],[-78.663,38.278],[-78.37,38.185],[-78.287,38.2715],[-78.43,38.367],[-78.453,38.4755]]]},"properties":{"name":"Greene"}},
{"type":"Feature","geometry":{"type":"Polygon","coordinates":[[[-76.654,37.603],[-76.751,37.7285],[-76.943,37.783],[-77.07,37.965],[-77.1815,37.8915],[-77.0335,37.721],[-76.9155,37.6935],[-76.792,37.5175],[-76.742,37.467],[-76.7125,37.4315],[-76.654,37.603]]]},"properties":{"name":"King and Queen"}},
{"type":"Feature","geometry":{"type":"Polygon","coordinates":[[[-77.6875,38.008],[-77.955,38.1175],[-78.208,38.133],[-78.3065,38.0065],[-78.0635,37.905],[-77.797,37.729],[-77.6875,38.008]]]},"properties":{"name":"Louisa"}},
{"type":"Feature","geometry":{"type":"Polygon","coordinates":[[[-77.2285,37.5365],[-77.1775,37.4905],[-76.9045,37.3775],[-76.742,37.467],[-76.792,37.5175],[-77.1235,37.627],[-77.2285,37.5365]]]},"properties":{"name":"New Kent"}},
{"type":"Feature","geometry":{"type":"Polygon","coordinates":[[[-76.5195,38.035],[-76.634,37.9665],[-76.508,37.839],[-76.32,37.6805],[-76.2365,37.889],[-76.5195,38.035]]]},"properties":{"name":"Northumberland"}},
{"type":"Feature","geometry":{"type":"Polygon","coordinates":[[[-82.1485,37.0415],[-82.328,36.971],[-82.4065,36.8765],[-82.332,36.7095],[-81.837,36.929],[-81.7805,36.9585],[-81.901,37.1425],[-82.1485,37.0415]]]},"properties":{"name":"Russell"}},
{"type":"Feature","geometry":{"type":"Polygon","coordinates":[[[-77.635,38.4095],[-77.6185,38.368],[-77.5305,38.309],[-77.467,38.3185],[-77.447,38.2845],[-77.3705,38.2465],[-77.3265,38.245],[-77.286,38.347],[-77.3025,38.5045],[-77.531,38.556],[-77.635,38.4095]]]},"properties":{"name":"Stafford"}},
{"type":"Feature","geometry":{"type":"Polygon","coordinates":[[[-79.5435,37.324],[-79.5035,37.3165],[-79.487,37.346],[-79.5355,37.3555],[-79.5435,37.324]]]},"properties":{"name":"Bedford"}},
{"type":"Feature","geometry":{"type":"Polygon","coordinates":[[[-79.47,36.541],[-79.3425,36.5415],[-79.399,36.6445],[-79.47,36.541]]]},"properties":{"name":"Danville"}},
{"type":"Feature","geometry":{"type":"Polygon","coordinates":[[[-76.9245,36.7075],[-76.9625,36.6675],[-76.9095,36.648],[-76.9245,36.7075]]]},"properties":{"name":"Franklin"}},
{"type":"Feature","geometry":{"type":"Polygon","coordinates":[[[-79.1835,37.466],[-79.257,37.3555],[-79.085,37.3945],[-79.1835,37.466]]]},"properties":{"name":"Lynchburg"}},
{"type":"Feature","geometry":{"type":"Polygon","coordinates":[[[-82.6605,36.919],[-82.615,36.9055],[-82.589,36.951],[-82.6165,36.9565],[-82.6605,36.919]]]},"properties":{"name":"Norton"}},
{"type":"Feature","geometry":{"type":"Polygon","coordinates":[[[-76.3445,36.9195],[-76.407,36.8975],[-76.4205,36.8665],[-76.29,36.822],[-76.3445,36.9195]]]},"properties":{"name":"Portsmouth"}},
{"type":"Feature","geometry":{"type":"Polygon","coordinates":[[[-76.7275,37.305],[-76.726,37.25],[-76.6795,37.2655],[-76.7275,37.305]]]},"properties":{"name":"Williamsburg"}},
{"type":"Feature","geometry":{"type":"Polygon","coordinates":[[[-77.89,36.989],[-77.9005,37.144],[-77.796,37.1925],[-78.231,37.296],[-78.2395,37.12],[-78.0035,37.023],[-77.89,36.989]]]},"properties":{"name":"Nottoway"}},
{"type":"Feature","geometry":{"type":"Polygon","coordinates":[[[-77.703,38.3605],[-77.892,38.389],[-78.0945,38.3115],[-78.287,38.2715],[-78.37,38.185],[-78.208,38.133],[-77.955,38.1175],[-77.703,38.3605]]]},"properties":{"name":"Orange"}},
{"type":"Feature","geometry":{"type":"Polygon","coordinates":[[[-78.285,38.759],[-78.3865,38.83],[-78.642,38.6045],[-78.6915,38.51],[-78.486,38.4215],[-78.453,38.4755],[-78.3385,38.6275],[-78.285,38.759]]]},"properties":{"name":"Page"}},
{"type":"Feature","geometry":{"type":"Polygon","coordinates":[[[-79.443,37.056],[-79.594,37.042],[-79.6405,36.856],[-79.715,36.542],[-79.511,36.5405],[-79.47,36.541],[-79.399,36.6445],[-79.3425,36.5415],[-79.2185,36.5415],[-79.0925,37.0615],[-79.332,37.1255],[-79.443,37.056]]]},"properties":{"name":"Pittsylvania"}},
{"type":"Feature","geometry":{"type":"Polygon","coordinates":[[[-77.531,38.556],[-77.3025,38.5045],[-77.2225,38.638],[-77.536,38.8475],[-77.655,38.9425],[-77.7155,38.832],[-77.531,38.556]],[[-77.4595,38.7725],[-77.4715,38.728],[-77.5265,38.7325],[-77.4755,38.781],[-77.422,38.769],[-77.4275,38.7535],[-77.4595,38.7725]]]},"properties":{"name":"Prince William"}},
{"type":"Feature","geometry":{"type":"Polygon","coordinates":[[[-79.4825,38.086],[-79.651,37.8715],[-79.674,37.763],[-79.6835,37.6615],[-79.4985,37.533],[-79.437,37.617],[-79.2645,37.7945],[-79.172,37.803],[-79.1575,37.891],[-79.4825,38.086]],[[-79.367,37.727],[-79.3805,37.744],[-79.329,37.7605],[-79.36,37.7025],[-79.367,37.727]],[[-79.4575,37.766],[-79.4565,37.7915],[-79.4155,37.789],[-79.4575,37.766]]]},"properties":{"name":"Rockbridge"}},
{"type":"Feature","geometry":{"type":"Polygon","coordinates":[[[-82.7715,36.8],[-82.985,36.594],[-82.8305,36.594],[-82.609,36.594],[-82.294,36.5955],[-82.332,36.7095],[-82.4065,36.8765],[-82.6345,36.8785],[-82.7715,36.8]]]},"properties":{"name":"Scott"}},
{"type":"Feature","geometry":{"type":"Polygon","coordinates":[[[-78.8695,38.763],[-78.642,38.6045],[-78.3865,38.83],[-78.314,39.008],[-78.544,39.0565],[-78.6015,38.9645],[-78.779,38.8925],[-78.8695,38.763]]]},"properties":{"name":"Shenandoah"}},
{"type":"Feature","geometry":{"type":"Polygon","coordinates":[[[-76.6715,37.142],[-76.7915,37.2075],[-76.883,37.223],[-76.9725,37.2485],[-77.1555,37.112],[-76.9655,37.055],[-76.9535,36.9445],[-76.8495,36.996],[-76.6715,37.142]]]},"properties":{"name":"Surry"}},
{"type":"Feature","geometry":{"type":"Polygon","coordinates":[[[-77.3985,36.993],[-77.619,36.878],[-77.4585,36.863],[-77.43,36.7075],[-76.9535,36.9445],[-76.9655,37.055],[-77.1555,37.112],[-77.3985,36.993]]]},"properties":{"name":"Sussex"}},
{"type":"Feature","geometry":{"type":"Polygon","coordinates":[[[-81.362,37.3375],[-81.5605,37.2065],[-81.7385,37.241],[-81.901,37.1425],[-81.7805,36.9585],[-81.683,36.933],[-81.437,37.01],[-81.225,37.235],[-81.362,37.3375]]]},"properties":{"name":"Tazewell"}},
{"type":"Feature","geometry":{"type":"Polygon","coordinates":[[[-82.332,36.7095],[-82.294,36.5955],[-82.2435,36.5955],[-82.1145,36.6385],[-82.146,36.5945],[-81.8265,36.614],[-81.647,36.612],[-81.606,36.6385],[-81.837,36.929],[-82.332,36.7095]]]},"properties":{"name":"Washington"}},
{"type":"Feature","geometry":{"type":"Polygon","coordinates":[[[-82.4065,36.8765],[-82.328,36.971],[-82.4675,37.022],[-82.5535,37.201],[-82.5655,37.196],[-82.869,36.974],[-82.8855,36.9005],[-82.7715,36.8],[-82.6345,36.8785],[-82.4065,36.8765]],[[-82.6605,36.919],[-82.6165,36.9565],[-82.589,36.951],[-82.615,36.9055],[-82.6605,36.919]]]},"properties":{"name":"Wise"}},
{"type":"Feature","geometry":{"type":"Polygon","coordinates":[[[-82.2435,36.5955],[-82.146,36.5945],[-82.1145,36.6385],[-82.2435,36.5955]]]},"properties":{"name":"Bristol"}},
{"type":"Feature","geometry":{"type":"Polygon","coordinates":[[[-76.313,36.5505],[-76.1225,36.5505],[-76.122,36.666],[-76.226,36.84],[-76.29,36.822],[-76.4205,36.8665],[-76.4915,36.5505],[-76.313,36.5505]]]},"properties":{"name":"Chesapeake"}},
{"type":"Feature","geometry":{"type":"Polygon","coordinates":[[[-79.9835,37.8025],[-80.009,37.763],[-79.9665,37.757],[-79.9835,37.8025]]]},"properties":{"name":"Covington"}},
{"type":"Feature","geometry":{"type":"Polygon","coordinates":[[[-77.1505,38.876],[-77.172,38.8935],[-77.19,38.878],[-77.1505,38.876]]]},"properties":{"name":"Falls Church"}},
{"type":"Feature","geometry":{"type":"Polygon","coordinates":[[[-80.9325,36.6715],[-80.914,36.65],[-80.8775,36.692],[-80.9175,36.694],[-80.9325,36.6715]]]},"properties":{"name":"Galax"}},
{"type":"Feature","geometry":{"type":"Polygon","coordinates":[[[-79.4575,37.766],[-79.4155,37.789],[-79.4565,37.7915],[-79.4575,37.766]]]},"properties":{"name":"Lexington"}},
{"type":"Feature","geometry":{"type":"Polygon","coordinates":[[[-77.4595,38.7725],[-77.4755,38.781],[-77.5265,38.7325],[-77.4715,38.728],[-77.4595,38.7725]]]},"properties":{"name":"Manassas"}},
{"type":"Feature","geometry":{"type":"Polygon","coordinates":[[[-77.4755,38.781],[-77.4595,38.7725],[-77.4275,38.7535],[-77.422,38.769],[-77.4755,38.781]]]},"properties":{"name":"Manassas Park"}},
{"type":"Feature","geometry":{"type":"Polygon","coordinates":[[[-76.177,36.9295],[-76.3445,36.9195],[-76.29,36.822],[-76.226,36.84],[-76.177,36.9295]]]},"properties":{"name":"Norfolk"}},
{"type":"Feature","geometry":{"type":"Polygon","coordinates":[[[-77.399,37.171],[-77.3765,37.245],[-77.384,37.239],[-77.4035,37.2375],[-77.4165,37.233],[-77.4475,37.2225],[-77.399,37.171]]]},"properties":{"name":"Petersburg"}},
{"type":"Feature","geometry":{"type":"Polygon","coordinates":[[[-80.58,37.0895],[-80.5295,37.134],[-80.5965,37.119],[-80.58,37.0895]]]},"properties":{"name":"Radford"}},
{"type":"Feature","geometry":{"type":"Polygon","coordinates":[[[-79.0915,38.132],[-79.05,38.121],[-79.023,38.196],[-79.097,38.185],[-79.0915,38.132]]]},"properties":{"name":"Staunton"}},
{"type":"Feature","geometry":{"type":"Polygon","coordinates":[[[-77.088,38.825],[-77.1505,38.876],[-77.19,38.878],[-77.172,38.8935],[-77.12,38.9345],[-77.328,39.0585],[-77.536,38.8475],[-77.2225,38.638],[-77.13,38.635],[-77.086,38.706],[-77.039,38.785],[-77.088,38.825]],[[-77.335,38.8515],[-77.2705,38.866],[-77.2705,38.841],[-77.335,38.8515]]]},"properties":{"name":"Fairfax"}},
{"type":"Feature","geometry":{"type":"Polygon","coordinates":[[[-80.98,37.293],[-80.8545,37.1475],[-80.607,37.245],[-80.4335,37.315],[-80.4755,37.423],[-80.5115,37.4815],[-80.77,37.3725],[-80.8585,37.4285],[-80.8595,37.4295],[-80.98,37.293]]]},"properties":{"name":"Giles"}},
{"type":"Feature","geometry":{"type":"Polygon","coordinates":[[[-81.606,36.6385],[-81.647,36.612],[-81.6775,36.588],[-81.353,36.5745],[-80.902,36.562],[-80.838,36.559],[-80.914,36.65],[-80.9325,36.6715],[-81.0425,36.8065],[-81.2615,36.763],[-81.5445,36.7015],[-81.606,36.6385]]]},"properties":{"name":"Grayson"}},
{"type":"Feature","geometry":{"type":"Polygon","coordinates":[[[-79.0925,37.0615],[-79.2185,36.5415],[-79.138,36.5415],[-78.7965,36.5415],[-78.734,36.542],[-78.6485,36.698],[-78.6715,36.858],[-78.9045,37.0225],[-79.0925,37.0615]]]},"properties":{"name":"Halifax"}},
{"type":"Feature","geometry":{"type":"Polygon","coordinates":[[[-79.6405,36.856],[-79.762,36.7885],[-80.0415,36.7945],[-80.0535,36.5425],[-80.0275,36.5425],[-79.715,36.542],[-79.6405,36.856]],[[-79.904,36.684],[-79.875,36.715],[-79.8375,36.704],[-79.8595,36.6615],[-79.904,36.684]]]},"properties":{"name":"Henry"}},
{"type":"Feature","geometry":{"type":"Polygon","coordinates":[[[-76.484,36.929],[-76.6685,37.055],[-76.6715,37.142],[-76.8495,36.996],[-76.816,36.915],[-76.9245,36.7075],[-76.9095,36.648],[-76.8975,36.644],[-76.484,36.929]]]},"properties":{"name":"Isle of Wight"}},
{"type":"Feature","geometry":{"type":"Polygon","coordinates":[[[-76.9975,38.278],[-77.012,38.3745],[-77.286,38.347],[-77.3265,38.245],[-77.116,38.15],[-77.0615,38.1615],[-76.9975,38.278]]]},"properties":{"name":"King George"}},
{"type":"Feature","geometry":{"type":"Polygon","coordinates":[[[-82.7715,36.8],[-82.8855,36.9005],[-83.0725,36.8545],[-83.1995,36.7375],[-83.461,36.665],[-83.6755,36.601],[-83.472,36.5975],[-82.985,36.594],[-82.7715,36.8]]]},"properties":{"name":"Lee"}},
{"type":"Feature","geometry":{"type":"Polygon","coordinates":[[[-78.046,36.544],[-78.0275,36.778],[-78.2415,36.808],[-78.493,36.891],[-78.6485,36.698],[-78.734,36.542],[-78.457,36.5425],[-78.324,36.544],[-78.046,36.544]]]},"properties":{"name":"Mecklenburg"}},
{"type":"Feature","geometry":{"type":"Polygon","coordinates":[[[-77.655,38.9425],[-77.536,38.8475],[-77.328,39.0585],[-77.52,39.121],[-77.459,39.2205],[-77.6775,39.3185],[-77.719,39.321],[-77.828,39.1325],[-77.962,39.014],[-77.655,38.9425]]]},"properties":{"name":"Loudoun"}},
{"type":"Feature","geometry":{"type":"Polygon","coordinates":[[[-75.9375,37.5495],[-76.026,37.2575],[-75.9705,37.1185],[-75.801,37.1975],[-75.6655,37.4675],[-75.8095,37.466],[-75.9375,37.5495]]]},"properties":{"name":"Northampton"}},
{"type":"Feature","geometry":{"type":"Polygon","coordinates":[[[-78.231,37.296],[-78.235,37.368],[-78.465,37.3395],[-78.5945,37.398],[-78.6815,37.249],[-78.4435,37.0795],[-78.2395,37.12],[-78.231,37.296]]]},"properties":{"name":"Prince Edward"}},
{"type":"Feature","geometry":{"type":"Polygon","coordinates":[[[-77.284,37.313],[-77.3105,37.2615],[-77.3345,37.3125],[-77.3765,37.245],[-77.399,37.171],[-77.3985,36.993],[-77.1555,37.112],[-76.9725,37.2485],[-77.2705,37.321],[-77.284,37.313]]]},"properties":{"name":"Prince George"}},
{"type":"Feature","geometry":{"type":"Polygon","coordinates":[[[-76.508,37.839],[-76.634,37.9665],[-76.937,38.077],[-76.7755,37.8745],[-76.6425,37.7925],[-76.508,37.839]]]},"properties":{"name":"Richmond"}},
{"type":"Feature","geometry":{"type":"Polygon","coordinates":[[[-79.8475,37.309],[-80.074,37.4225],[-80.262,37.3405],[-80.178,37.1135],[-80.128,37.123],[-79.9625,37.137],[-79.847,37.2255],[-79.8475,37.309]],[[-80.0225,37.308],[-79.905,37.3205],[-79.9505,37.2115],[-80.0335,37.263],[-80.1205,37.287],[-80.0225,37.308]]]},"properties":{"name":"Roanoke"}},
{"type":"Feature","geometry":{"type":"Polygon","coordinates":[[[-79.226,38.4795],[-78.7495,38.2065],[-78.663,38.278],[-78.486,38.4215],[-78.6915,38.51],[-78.642,38.6045],[-78.8695,38.763],[-79.0575,38.7615],[-79.226,38.4795]],[[-78.8705,38.4825],[-78.8245,38.4355],[-78.9145,38.39],[-78.8705,38.4825]]]},"properties":{"name":"Rockingham"}},
{"type":"Feature","geometry":{"type":"Polygon","coordinates":[[[-76.9535,36.9445],[-77.43,36.7075],[-77.297,36.5445],[-77.1645,36.5465],[-76.916,36.544],[-76.9155,36.544],[-76.8975,36.644],[-76.9095,36.648],[-76.9625,36.6675],[-76.9245,36.7075],[-76.816,36.915],[-76.8495,36.996],[-76.9535,36.9445]]]},"properties":{"name":"Southampton"}},
{"type":"Feature","geometry":{"type":"Polygon","coordinates":[[[-77.703,38.3605],[-77.955,38.1175],[-77.6875,38.008],[-77.642,37.991],[-77.3705,38.2465],[-77.447,38.2845],[-77.5305,38.309],[-77.6185,38.368],[-77.703,38.3605]]]},"properties":{"name":"Spotsylvania"}},
{"type":"Feature","geometry":{"type":"Polygon","coordinates":[[[-76.937,38.077],[-76.634,37.9665],[-76.5195,38.035],[-76.614,38.1485],[-76.839,38.1635],[-76.9975,38.278],[-77.0615,38.1615],[-76.937,38.077]]]},"properties":{"name":"Westmoreland"}},
{"type":"Feature","geometry":{"type":"Polygon","coordinates":[[[-76.4355,37.095],[-76.3945,37.106],[-76.398,37.1645],[-76.499,37.241],[-76.6585,37.38],[-76.7275,37.305],[-76.6795,37.2655],[-76.5915,37.2145],[-76.4355,37.095]]]},"properties":{"name":"York"}},
{"type":"Feature","geometry":{"type":"Polygon","coordinates":[[[-77.4165,37.233],[-77.4035,37.2375],[-77.3825,37.243],[-77.379,37.2675],[-77.4145,37.261],[-77.4165,37.233]]]},"properties":{"name":"Colonial Heights"}},
{"type":"Feature","geometry":{"type":"Polygon","coordinates":[[[-77.5305,38.309],[-77.447,38.2845],[-77.467,38.3185],[-77.5305,38.309]]]},"properties":{"name":"Fredericksburg"}},
{"type":"Feature","geometry":{"type":"Polygon","coordinates":[[[-76.3945,37.106],[-76.4355,37.095],[-76.4645,37.0275],[-76.287,37.1175],[-76.3945,37.106]]]},"properties":{"name":"Hampton"}},
{"type":"Feature","geometry":{"type":"Polygon","coordinates":[[[-76.4355,37.095],[-76.5915,37.2145],[-76.611,37.167],[-76.4645,37.0275],[-76.4355,37.095]]]},"properties":{"name":"Newport News"}},
{"type":"Feature","geometry":{"type":"Polygon","coordinates":[[[-76.287,37.1175],[-76.398,37.1645],[-76.3945,37.106],[-76.287,37.1175]]]},"properties":{"name":"Poquoson"}},
{"type":"Feature","geometry":{"type":"Polygon","coordinates":[[[-80.0225,37.308],[-80.0335,37.263],[-79.9505,37.2115],[-79.905,37.3205],[-80.0225,37.308]]]},"properties":{"name":"Roanoke"}},
{"type":"Feature","geometry":{"type":"Polygon","coordinates":[[[-79.904,36.684],[-79.8595,36.6615],[-79.8375,36.704],[-79.875,36.715],[-79.904,36.684]]]},"properties":{"name":"Martinsville"}},
{"type":"Feature","geometry":{"type":"Polygon","coordinates":[[[-77.2285,37.5365],[-77.446,37.684],[-77.63,37.707],[-77.654,37.5625],[-77.596,37.5555],[-77.413,37.58],[-77.421,37.447],[-77.2495,37.382],[-77.1775,37.4905],[-77.2285,37.5365]]]},"properties":{"name":"Henrico"}},
{"type":"Feature","geometry":{"type":"Polygon","coordinates":[[[-75.2425,38.027],[-75.6245,37.994],[-75.6695,37.951],[-75.9375,37.5495],[-75.8095,37.466],[-75.6655,37.4675],[-75.515,37.799],[-75.3495,37.873],[-75.2425,38.027]]]},"properties":{"name":"Accomack"}},
{"type":"Feature","geometry":{"type":"Polygon","coordinates":[[[-81.225,37.235],[-81.437,37.01],[-81.3795,36.9525],[-81.2245,37.048],[-80.9125,37.0735],[-80.8545,37.1475],[-80.98,37.293],[-81.225,37.235]]]},"properties":{"name":"Bland"}},
{"type":"Feature","geometry":{"type":"Polygon","coordinates":[[[-81.9685,37.538],[-82.306,37.301],[-82.1485,37.0415],[-81.901,37.1425],[-81.7385,37.241],[-81.9255,37.3575],[-81.928,37.512],[-81.9685,37.538]]]},"properties":{"name":"Buchanan"}},
{"type":"Feature","geometry":{"type":"Polygon","coordinates":[[[-78.4435,37.0795],[-78.6815,37.249],[-78.824,37.2055],[-78.9045,37.0225],[-78.6715,36.858],[-78.6485,36.698],[-78.493,36.891],[-78.4435,37.0795]]]},"properties":{"name":"Charlotte"}},
{"type":"Feature","geometry":{"type":"Polygon","coordinates":[[[-77.855,37.4185],[-77.7585,37.2685],[-77.6505,37.265],[-77.4475,37.2225],[-77.4165,37.233],[-77.4145,37.261],[-77.379,37.2675],[-77.3825,37.243],[-77.4035,37.2375],[-77.384,37.239],[-77.3765,37.245],[-77.3345,37.3125],[-77.284,37.313],[-77.2705,37.321],[-77.2495,37.382],[-77.421,37.447],[-77.596,37.5555],[-77.654,37.5625],[-77.855,37.4185]]]},"properties":{"name":"Chesterfield"}}
]}